[{"OBJECT_NAME":"STARLINK-34311","OBJECT_ID":"2025-117D","EPOCH":"2026-03-09T05:49:54.405120","MEAN_MOTION":15.30197645,"ECCENTRICITY":0.00012928,"INCLINATION":53.1622,"RA_OF_ASC_NODE":41.9398,"ARG_OF_PERICENTER":81.7614,"MEAN_ANOMALY":278.3534,"EPHEMERIS_TYPE":0,"CLASSIFICATION_TYPE":"U","NORAD_CAT_ID":64206,"ELEMENT_SET_NO":999,"REV_AT_EPOCH":4448,"BSTAR":0.0011270017,"MEAN_MOTION_DOT":0.00033166,"MEAN_MOTION_DDOT":0},{"OBJECT_NAME":"KUIPER-00222","OBJECT_ID":"2026-030U","EPOCH":"2026-03-09T16:13:57.726048","MEAN_MOTION":15.32445377,"ECCENTRICITY":0.00128002,"INCLINATION":51.8817,"RA_OF_ASC_NODE":219.7147,"ARG_OF_PERICENTER":40.1845,"MEAN_ANOMALY":320.0084,"EPHEMERIS_TYPE":0,"CLASSIFICATION_TYPE":"U","NORAD_CAT_ID":67782,"ELEMENT_SET_NO":999,"REV_AT_EPOCH":508,"BSTAR":0.0017317201,"MEAN_MOTION_DOT":0.00055223,"MEAN_MOTION_DDOT":0}]
